[{"OBJECT_NAME":"ONEWEB-0356","OBJECT_ID":"2021-090E","EPOCH":"2026-01-09T06:55:21.132192","MEAN_MOTION":13.20770832,"ECCENTRICITY":0.0002664,"INCLINATION":87.9231,"RA_OF_ASC_NODE":306.1306,"ARG_OF_PERICENTER":77.2465,"MEAN_ANOMALY":282.8966,"EPHEMERIS_TYPE":0,"CLASSIFICATION_TYPE":"U","NORAD_CAT_ID":49283,"ELEMENT_SET_NO":999,"REV_AT_EPOCH":20885,"BSTAR":0.00017326638,"MEAN_MOTION_DOT":8.3e-7,"MEAN_MOTION_DDOT":0},{"OBJECT_NAME":"ONEWEB-0358","OBJECT_ID":"2021-090F","EPOCH":"2026-01-09T05:49:27.004224","MEAN_MOTION":13.20771693,"ECCENTRICITY":0.00018106,"INCLINATION":87.9231,"RA_OF_ASC_NODE":306.1412,"ARG_OF_PERICENTER":80.1316,"MEAN_ANOMALY":280.0022,"EPHEMERIS_TYPE":0,"CLASSIFICATION_TYPE":"U","NORAD_CAT_ID":49284,"ELEMENT_SET_NO":999,"REV_AT_EPOCH":20957,"BSTAR":0.00036269375,"MEAN_MOTION_DOT":1.6e-6,"MEAN_MOTION_DDOT":0},{"OBJECT_NAME":"ONEWEB-0359","OBJECT_ID":"2021-090G","EPOCH":"2026-01-09T07:33:59.520672","MEAN_MOTION":13.20771353,"ECCENTRICITY":0.00017769,"INCLINATION":87.9231,"RA_OF_ASC_NODE":306.1247,"ARG_OF_PERICENTER":90.298,"MEAN_ANOMALY":269.8357,"EPHEMERIS_TYPE":0,"CLASSIFICATION_TYPE":"U","NORAD_CAT_ID":49285,"ELEMENT_SET_NO":999,"REV_AT_EPOCH":20956,"BSTAR":0.0002068268,"MEAN_MOTION_DOT":9.7e-7,"MEAN_MOTION_DDOT":0},{"OBJECT_NAME":"ONEWEB-0360","OBJECT_ID":"2021-090H","EPOCH":"2026-01-09T07:20:21.729120","MEAN_MOTION":13.20772463,"ECCENTRICITY":0.00017071,"INCLINATION":87.9227,"RA_OF_ASC_NODE":306.1337,"ARG_OF_PERICENTER":81.1433,"MEAN_ANOMALY":278.9894,"EPHEMERIS_TYPE":0,"CLASSIFICATION_TYPE":"U","NORAD_CAT_ID":49286,"ELEMENT_SET_NO":999,"REV_AT_EPOCH":20887,"BSTAR":0.00024154256,"MEAN_MOTION_DOT":1.11e-6,"MEAN_MOTION_DDOT":0},{"OBJECT_NAME":"ONEWEB-0361","OBJECT_ID":"2021-090J","EPOCH":"2026-01-09T06:53:05.797824","MEAN_MOTION":13.20772482,"ECCENTRICITY":0.00019275,"INCLINATION":87.9229,"RA_OF_ASC_NODE":306.1348,"ARG_OF_PERICENTER":78.0076,"MEAN_ANOMALY":282.1273,"EPHEMERIS_TYPE":0,"CLASSIFICATION_TYPE":"U","NORAD_CAT_ID":49287,"ELEMENT_SET_NO":999,"REV_AT_EPOCH":20932,"BSTAR":4.9589999e-5,"MEAN_MOTION_DOT":3.3e-7,"MEAN_MOTION_DDOT":0},{"OBJECT_NAME":"ONEWEB-0362","OBJECT_ID":"2021-090K","EPOCH":"2026-01-09T06:21:56.601216","MEAN_MOTION":13.19725148,"ECCENTRICITY":0.00014946,"INCLINATION":87.9216,"RA_OF_ASC_NODE":336.6055,"ARG_OF_PERICENTER":81.585,"MEAN_ANOMALY":278.5452,"EPHEMERIS_TYPE":0,"CLASSIFICATION_TYPE":"U","NORAD_CAT_ID":49288,"ELEMENT_SET_NO":999,"REV_AT_EPOCH":20595,"BSTAR":-9.055917e-6,"MEAN_MOTION_DOT":9.0e-8,"MEAN_MOTION_DDOT":0},{"OBJECT_NAME":"ONEWEB-0363","OBJECT_ID":"2021-090L","EPOCH":"2026-01-09T07:15:48.477888","MEAN_MOTION":13.2077078,"ECCENTRICITY":0.00020972,"INCLINATION":87.9233,"RA_OF_ASC_NODE":306.1318,"ARG_OF_PERICENTER":79.9046,"MEAN_ANOMALY":280.2324,"EPHEMERIS_TYPE":0,"CLASSIFICATION_TYPE":"U","NORAD_CAT_ID":49289,"ELEMENT_SET_NO":999,"REV_AT_EPOCH":20933,"BSTAR":0.00023284219,"MEAN_MOTION_DOT":1.08e-6,"MEAN_MOTION_DDOT":0},{"OBJECT_NAME":"ONEWEB-0364","OBJECT_ID":"2021-090M","EPOCH":"2026-01-09T06:21:15.922368","MEAN_MOTION":13.20771389,"ECCENTRICITY":0.00018553,"INCLINATION":87.9222,"RA_OF_ASC_NODE":306.1597,"ARG_OF_PERICENTER":78.021,"MEAN_ANOMALY":282.1132,"EPHEMERIS_TYPE":0,"CLASSIFICATION_TYPE":"U","NORAD_CAT_ID":49290,"ELEMENT_SET_NO":999,"REV_AT_EPOCH":21046,"BSTAR":0.00012516029,"MEAN_MOTION_DOT":6.4e-7,"MEAN_MOTION_DDOT":0},{"OBJECT_NAME":"ONEWEB-0365","OBJECT_ID":"2021-090N","EPOCH":"2026-01-09T06:35:35.363904","MEAN_MOTION":13.19726447,"ECCENTRICITY":0.00016884,"INCLINATION":87.9236,"RA_OF_ASC_NODE":336.5738,"ARG_OF_PERICENTER":78.895,"MEAN_ANOMALY":281.2373,"EPHEMERIS_TYPE":0,"CLASSIFICATION_TYPE":"U","NORAD_CAT_ID":49291,"ELEMENT_SET_NO":999,"REV_AT_EPOCH":20546,"BSTAR":-2.8070893e-5,"MEAN_MOTION_DOT":2.0e-8,"MEAN_MOTION_DDOT":0},{"OBJECT_NAME":"ONEWEB-0366","OBJECT_ID":"2021-090P","EPOCH":"2026-01-09T06:33:57.588480","MEAN_MOTION":13.14502437,"ECCENTRICITY":0.00017899,"INCLINATION":87.9014,"RA_OF_ASC_NODE":321.3833,"ARG_OF_PERICENTER":80.3736,"MEAN_ANOMALY":279.7596,"EPHEMERIS_TYPE":0,"CLASSIFICATION_TYPE":"U","NORAD_CAT_ID":49292,"ELEMENT_SET_NO":999,"REV_AT_EPOCH":20668,"BSTAR":-0.0012129381,"MEAN_MOTION_DOT":-4.37e-6,"MEAN_MOTION_DDOT":0},{"OBJECT_NAME":"ONEWEB-0367","OBJECT_ID":"2021-090Q","EPOCH":"2026-01-09T07:13:32.605248","MEAN_MOTION":13.20772226,"ECCENTRICITY":0.00015582,"INCLINATION":87.9232,"RA_OF_ASC_NODE":306.1313,"ARG_OF_PERICENTER":74.54,"MEAN_ANOMALY":285.5905,"EPHEMERIS_TYPE":0,"CLASSIFICATION_TYPE":"U","NORAD_CAT_ID":49293,"ELEMENT_SET_NO":999,"REV_AT_EPOCH":20885,"BSTAR":0.00030045681,"MEAN_MOTION_DOT":1.35e-6,"MEAN_MOTION_DDOT":0},{"OBJECT_NAME":"ONEWEB-0368","OBJECT_ID":"2021-090R","EPOCH":"2026-01-09T06:34:54.544224","MEAN_MOTION":13.20772344,"ECCENTRICITY":0.00023533,"INCLINATION":87.9224,"RA_OF_ASC_NODE":306.1638,"ARG_OF_PERICENTER":62.0963,"MEAN_ANOMALY":298.0409,"EPHEMERIS_TYPE":0,"CLASSIFICATION_TYPE":"U","NORAD_CAT_ID":49294,"ELEMENT_SET_NO":999,"REV_AT_EPOCH":21000,"BSTAR":3.430021e-5,"MEAN_MOTION_DOT":2.7e-7,"MEAN_MOTION_DDOT":0},{"OBJECT_NAME":"ONEWEB-0369","OBJECT_ID":"2021-090S","EPOCH":"2026-01-09T06:28:44.876640","MEAN_MOTION":13.19724302,"ECCENTRICITY":0.00018012,"INCLINATION":87.9224,"RA_OF_ASC_NODE":336.5991,"ARG_OF_PERICENTER":78.5251,"MEAN_ANOMALY":281.6083,"EPHEMERIS_TYPE":0,"CLASSIFICATION_TYPE":"U","NORAD_CAT_ID":49295,"ELEMENT_SET_NO":999,"REV_AT_EPOCH":20545,"BSTAR":0.00012232447,"MEAN_MOTION_DOT":6.2e-7,"MEAN_MOTION_DDOT":0},{"OBJECT_NAME":"ONEWEB-0370","OBJECT_ID":"2021-090T","EPOCH":"2026-01-09T07:27:10.590336","MEAN_MOTION":13.20771452,"ECCENTRICITY":0.00014992,"INCLINATION":87.9229,"RA_OF_ASC_NODE":306.1324,"ARG_OF_PERICENTER":84.8218,"MEAN_ANOMALY":275.3087,"EPHEMERIS_TYPE":0,"CLASSIFICATION_TYPE":"U","NORAD_CAT_ID":49296,"ELEMENT_SET_NO":999,"REV_AT_EPOCH":20889,"BSTAR":0.00020182516,"MEAN_MOTION_DOT":9.5e-7,"MEAN_MOTION_DDOT":0},{"OBJECT_NAME":"ONEWEB-0371","OBJECT_ID":"2021-090U","EPOCH":"2026-01-09T06:40:08.414688","MEAN_MOTION":13.19724528,"ECCENTRICITY":0.00016613,"INCLINATION":87.9227,"RA_OF_ASC_NODE":336.5854,"ARG_OF_PERICENTER":80.4883,"MEAN_ANOMALY":279.6438,"EPHEMERIS_TYPE":0,"CLASSIFICATION_TYPE":"U","NORAD_CAT_ID":49297,"ELEMENT_SET_NO":999,"REV_AT_EPOCH":20549,"BSTAR":-0.00020505586,"MEAN_MOTION_DOT":-6.9e-7,"MEAN_MOTION_DDOT":0},{"OBJECT_NAME":"ONEWEB-0372","OBJECT_ID":"2021-090V","EPOCH":"2026-01-09T07:11:04.119072","MEAN_MOTION":13.20771175,"ECCENTRICITY":0.00017351,"INCLINATION":87.9228,"RA_OF_ASC_NODE":306.134,"ARG_OF_PERICENTER":73.4715,"MEAN_ANOMALY":286.6608,"EPHEMERIS_TYPE":0,"CLASSIFICATION_TYPE":"U","NORAD_CAT_ID":49298,"ELEMENT_SET_NO":999,"REV_AT_EPOCH":20886,"BSTAR":0.00024383883,"MEAN_MOTION_DOT":1.12e-6,"MEAN_MOTION_DDOT":0},{"OBJECT_NAME":"ONEWEB-0373","OBJECT_ID":"2021-090W","EPOCH":"2026-01-09T06:00:48.508416","MEAN_MOTION":13.20772479,"ECCENTRICITY":0.00017697,"INCLINATION":87.9221,"RA_OF_ASC_NODE":306.1556,"ARG_OF_PERICENTER":79.3003,"MEAN_ANOMALY":280.833,"EPHEMERIS_TYPE":0,"CLASSIFICATION_TYPE":"U","NORAD_CAT_ID":49299,"ELEMENT_SET_NO":999,"REV_AT_EPOCH":21004,"BSTAR":0.00018348747,"MEAN_MOTION_DOT":8.8e-7,"MEAN_MOTION_DDOT":0},{"OBJECT_NAME":"ONEWEB-0374","OBJECT_ID":"2021-090X","EPOCH":"2026-01-09T06:15:42.767424","MEAN_MOTION":13.14503376,"ECCENTRICITY":0.00022925,"INCLINATION":87.9021,"RA_OF_ASC_NODE":321.3658,"ARG_OF_PERICENTER":78.0547,"MEAN_ANOMALY":282.0839,"EPHEMERIS_TYPE":0,"CLASSIFICATION_TYPE":"U","NORAD_CAT_ID":49300,"ELEMENT_SET_NO":999,"REV_AT_EPOCH":20668,"BSTAR":-0.00020774736,"MEAN_MOTION_DOT":-6.4e-7,"MEAN_MOTION_DDOT":0},{"OBJECT_NAME":"ONEWEB-0375","OBJECT_ID":"2021-090Y","EPOCH":"2026-01-09T07:31:43.438944","MEAN_MOTION":13.20773181,"ECCENTRICITY":0.00022235,"INCLINATION":87.9226,"RA_OF_ASC_NODE":306.1242,"ARG_OF_PERICENTER":85.5035,"MEAN_ANOMALY":274.6353,"EPHEMERIS_TYPE":0,"CLASSIFICATION_TYPE":"U","NORAD_CAT_ID":49301,"ELEMENT_SET_NO":999,"REV_AT_EPOCH":20955,"BSTAR":0.0003009964,"MEAN_MOTION_DOT":1.35e-6,"MEAN_MOTION_DDOT":0},{"OBJECT_NAME":"ONEWEB-0376","OBJECT_ID":"2021-090Z","EPOCH":"2026-01-09T06:37:52.183488","MEAN_MOTION":13.19725308,"ECCENTRICITY":0.00016585,"INCLINATION":87.9235,"RA_OF_ASC_NODE":336.575,"ARG_OF_PERICENTER":74.2479,"MEAN_ANOMALY":285.8837,"EPHEMERIS_TYPE":0,"CLASSIFICATION_TYPE":"U","NORAD_CAT_ID":49302,"ELEMENT_SET_NO":999,"REV_AT_EPOCH":20549,"BSTAR":-0.00015866395,"MEAN_MOTION_DOT":-5.1e-7,"MEAN_MOTION_DDOT":0},{"OBJECT_NAME":"ONEWEB-0377","OBJECT_ID":"2021-090AA","EPOCH":"2026-01-09T07:11:28.608288","MEAN_MOTION":13.20772257,"ECCENTRICITY":0.00017152,"INCLINATION":87.923,"RA_OF_ASC_NODE":306.1298,"ARG_OF_PERICENTER":83.8057,"MEAN_ANOMALY":276.3272,"EPHEMERIS_TYPE":0,"CLASSIFICATION_TYPE":"U","NORAD_CAT_ID":49303,"ELEMENT_SET_NO":999,"REV_AT_EPOCH":20954,"BSTAR":0.00017994921,"MEAN_MOTION_DOT":8.6e-7,"MEAN_MOTION_DDOT":0},{"OBJECT_NAME":"ONEWEB-0378","OBJECT_ID":"2021-090AB","EPOCH":"2026-01-09T05:54:11.698272","MEAN_MOTION":13.20772714,"ECCENTRICITY":0.00018791,"INCLINATION":87.9226,"RA_OF_ASC_NODE":306.1536,"ARG_OF_PERICENTER":77.1579,"MEAN_ANOMALY":282.9764,"EPHEMERIS_TYPE":0,"CLASSIFICATION_TYPE":"U","NORAD_CAT_ID":49304,"ELEMENT_SET_NO":999,"REV_AT_EPOCH":20880,"BSTAR":0.00026300039,"MEAN_MOTION_DOT":1.2e-6,"MEAN_MOTION_DDOT":0},{"OBJECT_NAME":"ONEWEB-0379","OBJECT_ID":"2021-090AC","EPOCH":"2026-01-09T06:08:52.058976","MEAN_MOTION":13.14503705,"ECCENTRICITY":0.00018632,"INCLINATION":87.9023,"RA_OF_ASC_NODE":321.3759,"ARG_OF_PERICENTER":76.8937,"MEAN_ANOMALY":283.2401,"EPHEMERIS_TYPE":0,"CLASSIFICATION_TYPE":"U","NORAD_CAT_ID":49305,"ELEMENT_SET_NO":999,"REV_AT_EPOCH":20668,"BSTAR":5.5874177e-5,"MEAN_MOTION_DOT":3.3e-7,"MEAN_MOTION_DDOT":0}]
